start=new Date('2022-11-17T00:00:00.000Z').valueOf();
sats=[{"TIME_SYSTEM":"UTC","CLASSIFICATION_TYPE":"U","PERIOD":"93.904","OBJECT_TYPE":"PAYLOAD","DECAY_DATE":null,"BSTAR":"-0.03809300000000","FILE":"3660705","MEAN_ANOMALY":"291.6713","OBJECT_NAME":"STARLINK-5157","TLE_LINE2":"2 53972  53.2178 246.5377 0001134  78.2192 291.6713 15.33481125  1302","LAUNCH_DATE":"2022-10-05","INCLINATION":"53.2178","GP_ID":"218017811","ECCENTRICITY":"0.00011340","RCS_SIZE":"LARGE","MEAN_ELEMENT_THEORY":"SGP4","COUNTRY_CODE":"US","NORAD_CAT_ID":"53972","OBJECT_ID":"2022-125J","PERIAPSIS":"464.662","REF_FRAME":"TEME","MEAN_MOTION_DDOT":"0.0000000000000","TLE_LINE1":"1 53972U 22125J   22320.91675926 -.01140169  00000-0 -38093-1 0  9990","MEAN_MOTION":"15.33481125","EPOCH":"2022-11-16T22:00:08.000064","SITE":"AFWTR","CENTER_NAME":"EARTH","MEAN_MOTION_DOT":"-0.01140169","RA_OF_ASC_NODE":"246.5377","SEMIMAJOR_AXIS":"6843.573","ARG_OF_PERICENTER":"78.2192","ELEMENT_SET_NO":"999","EPHEMERIS_TYPE":"0","APOAPSIS":"466.214","REV_AT_EPOCH":"130"},{"RA_OF_ASC_NODE":"250.3856","MEAN_MOTION_DOT":"0.00000410","SITE":"AFWTR","CENTER_NAME":"EARTH","EPOCH":"2022-11-16T22:00:08.000064","REV_AT_EPOCH":"130","APOAPSIS":"540.822","EPHEMERIS_TYPE":"0","ELEMENT_SET_NO":"999","ARG_OF_PERICENTER":"57.2380","SEMIMAJOR_AXIS":"6917.891","COUNTRY_CODE":"US","OBJECT_ID":"2022-125K","NORAD_CAT_ID":"53973","MEAN_ELEMENT_THEORY":"SGP4","RCS_SIZE":"LARGE","MEAN_MOTION":"15.08836430","TLE_LINE1":"1 53973U 22125K   22320.91675926  .00000410  00000-0  43826-4 0  9995","MEAN_MOTION_DDOT":"0.0000000000000","REF_FRAME":"TEME","PERIAPSIS":"538.690","OBJECT_NAME":"STARLINK-5156","MEAN_ANOMALY":"178.6540","FILE":"3660705","BSTAR":"0.00004382600000","ECCENTRICITY":"0.00015410","GP_ID":"218017976","TLE_LINE2":"2 53973  53.2175 250.3856 0001541  57.2380 178.6540 15.08836430  1300","LAUNCH_DATE":"2022-10-05","INCLINATION":"53.2175","CLASSIFICATION_TYPE":"U","TIME_SYSTEM":"UTC","DECAY_DATE":null,"OBJECT_TYPE":"PAYLOAD","PERIOD":"95.438"},{"ECCENTRICITY":"0.00019530","GP_ID":"218018486","INCLINATION":"53.2174","TLE_LINE2":"2 53974  53.2174 243.6769 0001953  49.9605 303.7326 15.73205665  1308","LAUNCH_DATE":"2022-10-05","MEAN_ANOMALY":"303.7326","OBJECT_NAME":"STARLINK-5159","FILE":"3660705","BSTAR":"-0.00001918100000","DECAY_DATE":null,"PERIOD":"91.533","OBJECT_TYPE":"PAYLOAD","TIME_SYSTEM":"UTC","CLASSIFICATION_TYPE":"U","APOAPSIS":"351.058","REV_AT_EPOCH":"130","ELEMENT_SET_NO":"999","ARG_OF_PERICENTER":"49.9605","EPHEMERIS_TYPE":"0","SEMIMAJOR_AXIS":"6727.879","RA_OF_ASC_NODE":"243.6769","SITE":"AFWTR","CENTER_NAME":"EARTH","MEAN_MOTION_DOT":"-0.00003313","EPOCH":"2022-11-16T22:00:08.000064","MEAN_MOTION":"15.73205665","REF_FRAME":"TEME","TLE_LINE1":"1 53974U 22125L   22320.91675926 -.00003313  00000-0 -19181-4 0  9990","MEAN_MOTION_DDOT":"0.0000000000000","PERIAPSIS":"348.430","COUNTRY_CODE":"US","OBJECT_ID":"2022-125L","NORAD_CAT_ID":"53974","MEAN_ELEMENT_THEORY":"SGP4","RCS_SIZE":"MEDIUM"},{"FILE":"3660705","BSTAR":"-0.03924500000000","OBJECT_NAME":"STARLINK-5137","MEAN_ANOMALY":"297.4610","GP_ID":"218018647","LAUNCH_DATE":"2022-10-05","TLE_LINE2":"2 53975  53.2177 246.5890 0001438  46.4780 297.4610 15.32524202  1304","INCLINATION":"53.2177","ECCENTRICITY":"0.00014380","CLASSIFICATION_TYPE":"U","TIME_SYSTEM":"UTC","OBJECT_TYPE":"PAYLOAD","PERIOD":"93.963","DECAY_DATE":null,"EPOCH":"2022-11-16T22:00:08.000064","RA_OF_ASC_NODE":"246.5890","MEAN_MOTION_DOT":"-0.01139649","SITE":"AFWTR","CENTER_NAME":"EARTH","EPHEMERIS_TYPE":"0","ELEMENT_SET_NO":"999","ARG_OF_PERICENTER":"46.4780","SEMIMAJOR_AXIS":"6846.421","REV_AT_EPOCH":"130","APOAPSIS":"469.271","MEAN_ELEMENT_THEORY":"SGP4","RCS_SIZE":"LARGE","NORAD_CAT_ID":"53975","COUNTRY_CODE":"US","OBJECT_ID":"2022-125M","PERIAPSIS":"467.302","MEAN_MOTION":"15.32524202","TLE_LINE1":"1 53975U 22125M   22320.91675926 -.01139649  00000-0 -39245-1 0  9994","MEAN_MOTION_DDOT":"0.0000000000000","REF_FRAME":"TEME"},{"MEAN_ELEMENT_THEORY":"SGP4","RCS_SIZE":"LARGE","OBJECT_ID":"2022-125N","COUNTRY_CODE":"US","NORAD_CAT_ID":"53976","PERIAPSIS":"348.225","MEAN_MOTION":"15.73332337","TLE_LINE1":"1 53976U 22125N   22320.91675926 -.00200235  00000-0 -14481-2 0  9990","MEAN_MOTION_DDOT":"0.0000000000000","REF_FRAME":"TEME","EPOCH":"2022-11-16T22:00:08.000064","RA_OF_ASC_NODE":"243.9448","MEAN_MOTION_DOT":"-0.00200235","SITE":"AFWTR","CENTER_NAME":"EARTH","EPHEMERIS_TYPE":"0","ARG_OF_PERICENTER":"35.3830","ELEMENT_SET_NO":"999","SEMIMAJOR_AXIS":"6727.518","REV_AT_EPOCH":"130","APOAPSIS":"350.541","CLASSIFICATION_TYPE":"U","TIME_SYSTEM":"UTC","OBJECT_TYPE":"PAYLOAD","PERIOD":"91.525","DECAY_DATE":null,"FILE":"3660705","BSTAR":"-0.00144810000000","OBJECT_NAME":"STARLINK-5134","MEAN_ANOMALY":"190.8217","GP_ID":"218018155","LAUNCH_DATE":"2022-10-05","TLE_LINE2":"2 53976  53.2172 243.9448 0001721  35.3830 190.8217 15.73332337  1308","INCLINATION":"53.2172","ECCENTRICITY":"0.00017210"},{"TIME_SYSTEM":"UTC","CLASSIFICATION_TYPE":"U","DECAY_DATE":null,"PERIOD":"93.866","OBJECT_TYPE":"PAYLOAD","MEAN_ANOMALY":"347.6917","OBJECT_NAME":"STARLINK-5094","FILE":"3660705","BSTAR":"-0.03738600000000","ECCENTRICITY":"0.00015610","GP_ID":"218018320","LAUNCH_DATE":"2022-10-05","TLE_LINE2":"2 53977  53.2177 246.5030 0001561  39.6177 347.6917 15.34096063  1302","INCLINATION":"53.2177","NORAD_CAT_ID":"53977","COUNTRY_CODE":"US","OBJECT_ID":"2022-125P","MEAN_ELEMENT_THEORY":"SGP4","RCS_SIZE":"LARGE","MEAN_MOTION":"15.34096063","REF_FRAME":"TEME","MEAN_MOTION_DDOT":"0.0000000000000","TLE_LINE1":"1 53977U 22125P   22320.91675926 -.01141182  00000-0 -37386-1 0  9995","PERIAPSIS":"462.541","RA_OF_ASC_NODE":"246.5030","CENTER_NAME":"EARTH","SITE":"AFWTR","MEAN_MOTION_DOT":"-0.01141182","EPOCH":"2022-11-16T22:00:08.000064","APOAPSIS":"464.677","REV_AT_EPOCH":"130","ARG_OF_PERICENTER":"39.6177","ELEMENT_SET_NO":"999","EPHEMERIS_TYPE":"0","SEMIMAJOR_AXIS":"6841.744"},{"TLE_LINE2":"2 53978  53.2177 246.4236 0002005  27.6940  39.5694 15.35661343  1308","INCLINATION":"53.2177","LAUNCH_DATE":"2022-10-05","GP_ID":"218018813","ECCENTRICITY":"0.00020050","BSTAR":"-0.03555900000000","FILE":"3660705","MEAN_ANOMALY":"39.5694","OBJECT_NAME":"STARLINK-5148","PERIOD":"93.771","OBJECT_TYPE":"PAYLOAD","DECAY_DATE":null,"TIME_SYSTEM":"UTC","CLASSIFICATION_TYPE":"U","SEMIMAJOR_AXIS":"6837.094","ARG_OF_PERICENTER":"27.6940","ELEMENT_SET_NO":"999","EPHEMERIS_TYPE":"0","APOAPSIS":"460.330","REV_AT_EPOCH":"130","EPOCH":"2022-11-16T22:00:08.000064","SITE":"AFWTR","CENTER_NAME":"EARTH","MEAN_MOTION_DOT":"-0.01141463","RA_OF_ASC_NODE":"246.4236","PERIAPSIS":"457.588","REF_FRAME":"TEME","MEAN_MOTION_DDOT":"0.0000000000000","TLE_LINE1":"1 53978U 22125Q   22320.91675926 -.01141463  00000-0 -35559-1 0  9998","MEAN_MOTION":"15.35661343","RCS_SIZE":"LARGE","MEAN_ELEMENT_THEORY":"SGP4","COUNTRY_CODE":"US","NORAD_CAT_ID":"53978","OBJECT_ID":"2022-125Q"},{"INCLINATION":"53.2177","TLE_LINE2":"2 53979  53.2177 246.4558 0001134  83.6434 327.4032 15.35052552  1309","LAUNCH_DATE":"2022-10-05","GP_ID":"218018975","ECCENTRICITY":"0.00011340","BSTAR":"-0.03626000000000","FILE":"3660705","MEAN_ANOMALY":"327.4032","OBJECT_NAME":"STARLINK-5123","PERIOD":"93.808","OBJECT_TYPE":"PAYLOAD","DECAY_DATE":null,"TIME_SYSTEM":"UTC","CLASSIFICATION_TYPE":"U","SEMIMAJOR_AXIS":"6838.901","ELEMENT_SET_NO":"999","ARG_OF_PERICENTER":"83.6434","EPHEMERIS_TYPE":"0","APOAPSIS":"461.542","REV_AT_EPOCH":"130","EPOCH":"2022-11-16T22:00:08.000064","CENTER_NAME":"EARTH","SITE":"AFWTR","MEAN_MOTION_DOT":"-0.01141157","RA_OF_ASC_NODE":"246.4558","PERIAPSIS":"459.991","REF_FRAME":"TEME","MEAN_MOTION_DDOT":"0.0000000000000","TLE_LINE1":"1 53979U 22125R   22320.91675926 -.01141157  00000-0 -36260-1 0  9999","MEAN_MOTION":"15.35052552","RCS_SIZE":"LARGE","MEAN_ELEMENT_THEORY":"SGP4","COUNTRY_CODE":"US","OBJECT_ID":"2022-125R","NORAD_CAT_ID":"53979"},{"CLASSIFICATION_TYPE":"U","TIME_SYSTEM":"UTC","OBJECT_TYPE":"PAYLOAD","PERIOD":"93.712","DECAY_DATE":null,"FILE":"3660705","BSTAR":"-0.03447800000000","OBJECT_NAME":"STARLINK-5133","MEAN_ANOMALY":"40.2625","GP_ID":"218017812","LAUNCH_DATE":"2022-10-05","TLE_LINE2":"2 53980  53.2176 246.3810 0001479  48.4863  40.2625 15.36618865  1301","INCLINATION":"53.2176","ECCENTRICITY":"0.00014790","MEAN_ELEMENT_THEORY":"SGP4","RCS_SIZE":"LARGE","COUNTRY_CODE":"US","OBJECT_ID":"2022-125S","NORAD_CAT_ID":"53980","PERIAPSIS":"455.107","MEAN_MOTION":"15.36618865","TLE_LINE1":"1 53980U 22125S   22320.91675926 -.01141465  00000-0 -34478-1 0  9992","MEAN_MOTION_DDOT":"0.0000000000000","REF_FRAME":"TEME","EPOCH":"2022-11-16T22:00:08.000064","RA_OF_ASC_NODE":"246.3810","MEAN_MOTION_DOT":"-0.01141465","CENTER_NAME":"EARTH","SITE":"AFWTR","EPHEMERIS_TYPE":"0","ARG_OF_PERICENTER":"48.4863","ELEMENT_SET_NO":"999","SEMIMAJOR_AXIS":"6834.253","REV_AT_EPOCH":"130","APOAPSIS":"457.129"},{"DECAY_DATE":null,"PERIOD":"91.530","OBJECT_TYPE":"PAYLOAD","TIME_SYSTEM":"UTC","CLASSIFICATION_TYPE":"U","ECCENTRICITY":"0.00020940","TLE_LINE2":"2 53981  53.2176 243.9335 0002094  19.7967 214.4661 15.73253801  1308","INCLINATION":"53.2176","LAUNCH_DATE":"2022-10-05","GP_ID":"218017977","MEAN_ANOMALY":"214.4661","OBJECT_NAME":"STARLINK-5149","BSTAR":"-0.00053776000000","FILE":"3660705","REF_FRAME":"TEME","TLE_LINE1":"1 53981U 22125T   22320.91675926 -.00075598  00000-0 -53776-3 0  9999","MEAN_MOTION_DDOT":"0.0000000000000","MEAN_MOTION":"15.73253801","PERIAPSIS":"348.198","OBJECT_ID":"2022-125T","COUNTRY_CODE":"US","NORAD_CAT_ID":"53981","RCS_SIZE":"LARGE","MEAN_ELEMENT_THEORY":"SGP4","APOAPSIS":"351.016","REV_AT_EPOCH":"130","SEMIMAJOR_AXIS":"6727.742","ELEMENT_SET_NO":"999","ARG_OF_PERICENTER":"19.7967","EPHEMERIS_TYPE":"0","SITE":"AFWTR","CENTER_NAME":"EARTH","MEAN_MOTION_DOT":"-0.00075598","RA_OF_ASC_NODE":"243.9335","EPOCH":"2022-11-16T22:00:08.000064"}];
